{
  "type": "FeatureCollection",
  "features": [
    {
      "type": "Feature",
      "properties": {
        "norad_id": 30232,
        "name": "FENGYUN 1C DEB",
        "group": "fengyun-1c-debris",
        "lat": 63.78573626600645,
        "lon": 17.697351543851628,
        "alt_km": 697.0416242857555,
        "timestamp": "2025-12-05T19:30:25.840405+00:00",
        "meta_object_name": "FENGYUN 1C DEB",
        "meta_object_id": "1999-025WR",
        "meta_epoch": "2025-12-05T03:06:54.009792",
        "meta_mean_motion": 14.63503691,
        "meta_eccentricity": 0.01365522,
        "meta_inclination": 98.6933,
        "meta_ra_of_asc_node": 178.873,
        "meta_arg_of_pericenter": 13.2843,
        "meta_mean_anomaly": 103.5699,
        "meta_ephemeris_type": 0,
        "meta_classification_type": "U",
        "meta_norad_cat_id": 30232,
        "meta_element_set_no": 999,
        "meta_rev_at_epoch": 99640,
        "meta_bstar": 0.0013189562,
        "meta_mean_motion_dot": 7.774e-05,
        "meta_mean_motion_ddot": 0,
        "tle_line1": "1 30232U 99025WR  25339.12979178  .00007774  00000+0  13190-2 0  9991",
        "tle_line2": "2 30232  98.6933 178.8730 0136552  13.2843 103.5699 14.63503691996406"
      },
      "geometry": {
        "type": "Point",
        "coordinates": [
          17.697351543851628,
          63.78573626600645
        ]
      }
    },
    {
      "type": "Feature",
      "properties": {
        "norad_id": 30234,
        "name": "FENGYUN 1C DEB",
        "group": "fengyun-1c-debris",
        "lat": 78.0465085397205,
        "lon": -143.3429810380825,
        "alt_km": 780.3954201748038,
        "timestamp": "2025-12-05T19:30:25.840415+00:00",
        "meta_object_name": "FENGYUN 1C DEB",
        "meta_object_id": "1999-025WT",
        "meta_epoch": "2025-12-05T00:43:30.164736",
        "meta_mean_motion": 14.16848981,
        "meta_eccentricity": 0.00670711,
        "meta_inclination": 98.6339,
        "meta_ra_of_asc_node": 350.0347,
        "meta_arg_of_pericenter": 96.9828,
        "meta_mean_anomaly": 331.776,
        "meta_ephemeris_type": 0,
        "meta_classification_type": "U",
        "meta_norad_cat_id": 30234,
        "meta_element_set_no": 999,
        "meta_rev_at_epoch": 97347,
        "meta_bstar": 0.00055632216,
        "meta_mean_motion_dot": 1.098e-05,
        "meta_mean_motion_ddot": 0,
        "tle_line1": "1 30234U 99025WT  25339.03021024  .00001098  00000+0  55632-3 0  9992",
        "tle_line2": "2 30234  98.6339 350.0347 0067071  96.9828 331.7760 14.16848981973474"
      },
      "geometry": {
        "type": "Point",
        "coordinates": [
          -143.3429810380825,
          78.0465085397205
        ]
      }
    },
    {
      "type": "Feature",
      "properties": {
        "norad_id": 30235,
        "name": "FENGYUN 1C DEB",
        "group": "fengyun-1c-debris",
        "lat": -77.18742539177262,
        "lon": 135.55574216687606,
        "alt_km": 760.0242016698649,
        "timestamp": "2025-12-05T19:30:25.840426+00:00",
        "meta_object_name": "FENGYUN 1C DEB",
        "meta_object_id": "1999-025WU",
        "meta_epoch": "2025-12-04T13:53:35.467872",
        "meta_mean_motion": 14.08761143,
        "meta_eccentricity": 0.0153222,
        "meta_inclination": 98.7501,
        "meta_ra_of_asc_node": 356.9834,
        "meta_arg_of_pericenter": 261.7492,
        "meta_mean_anomaly": 224.3909,
        "meta_ephemeris_type": 0,
        "meta_classification_type": "U",
        "meta_norad_cat_id": 30235,
        "meta_element_set_no": 999,
        "meta_rev_at_epoch": 96778,
        "meta_bstar": 0.00071109,
        "meta_mean_motion_dot": 1.322e-05,
        "meta_mean_motion_ddot": 0,
        "tle_line1": "1 30235U 99025WU  25338.57888273  .00001322  00000+0  71109-3 0  9995",
        "tle_line2": "2 30235  98.7501 356.9834 0153222 261.7492 224.3909 14.08761143967780"
      },
      "geometry": {
        "type": "Point",
        "coordinates": [
          135.55574216687606,
          -77.18742539177262
        ]
      }
    },
    {
      "type": "Feature",
      "properties": {
        "norad_id": 30237,
        "name": "FENGYUN 1C DEB",
        "group": "fengyun-1c-debris",
        "lat": 62.63035261672852,
        "lon": -80.18868626822054,
        "alt_km": 758.1501138519334,
        "timestamp": "2025-12-05T19:30:25.840436+00:00",
        "meta_object_name": "FENGYUN 1C DEB",
        "meta_object_id": "1999-025WW",
        "meta_epoch": "2025-12-05T05:46:30.190080",
        "meta_mean_motion": 14.40715425,
        "meta_eccentricity": 0.0013409,
        "meta_inclination": 98.8273,
        "meta_ra_of_asc_node": 81.7527,
        "meta_arg_of_pericenter": 328.592,
        "meta_mean_anomaly": 61.3605,
        "meta_ephemeris_type": 0,
        "meta_classification_type": "U",
        "meta_norad_cat_id": 30237,
        "meta_element_set_no": 999,
        "meta_rev_at_epoch": 97590,
        "meta_bstar": 0.004615082,
        "meta_mean_motion_dot": 0.00014748,
        "meta_mean_motion_ddot": 0,
        "tle_line1": "1 30237U 99025WW  25339.24062720  .00014748  00000+0  46151-2 0  9997",
        "tle_line2": "2 30237  98.8273  81.7527 0013409 328.5920  61.3605 14.40715425975904"
      },
      "geometry": {
        "type": "Point",
        "coordinates": [
          -80.18868626822054,
          62.63035261672852
        ]
      }
    },
    {
      "type": "Feature",
      "properties": {
        "norad_id": 30239,
        "name": "FENGYUN 1C DEB",
        "group": "fengyun-1c-debris",
        "lat": -67.13918868894373,
        "lon": 154.23631350816663,
        "alt_km": 2265.0674843461375,
        "timestamp": "2025-12-05T19:30:25.840446+00:00",
        "meta_object_name": "FENGYUN 1C DEB",
        "meta_object_id": "1999-025WY",
        "meta_epoch": "2025-12-03T08:48:46.117152",
        "meta_mean_motion": 11.38006263,
        "meta_eccentricity": 0.1345906,
        "meta_inclination": 99.5943,
        "meta_ra_of_asc_node": 128.9482,
        "meta_arg_of_pericenter": 47.2741,
        "meta_mean_anomaly": 323.3965,
        "meta_ephemeris_type": 0,
        "meta_classification_type": "U",
        "meta_norad_cat_id": 30239,
        "meta_element_set_no": 999,
        "meta_rev_at_epoch": 54428,
        "meta_bstar": 0.011334,
        "meta_mean_motion_dot": 3.74e-05,
        "meta_mean_motion_ddot": 0,
        "tle_line1": "1 30239U 99025WY  25337.36720043  .00003740  00000+0  11334-1 0  9993",
        "tle_line2": "2 30239  99.5943 128.9482 1345906  47.2741 323.3965 11.38006263544289"
      },
      "geometry": {
        "type": "Point",
        "coordinates": [
          154.23631350816663,
          -67.13918868894373
        ]
      }
    },
    {
      "type": "Feature",
      "properties": {
        "norad_id": 30241,
        "name": "FENGYUN 1C DEB",
        "group": "fengyun-1c-debris",
        "lat": 73.35250076192698,
        "lon": -34.81247055720816,
        "alt_km": 747.7645502240157,
        "timestamp": "2025-12-05T19:30:25.840457+00:00",
        "meta_object_name": "FENGYUN 1C DEB",
        "meta_object_id": "1999-025XA",
        "meta_epoch": "2025-12-05T07:22:25.154112",
        "meta_mean_motion": 14.09533839,
        "meta_eccentricity": 0.01468572,
        "meta_inclination": 99.1478,
        "meta_ra_of_asc_node": 112.067,
        "meta_arg_of_pericenter": 101.7621,
        "meta_mean_anomaly": 318.0933,
        "meta_ephemeris_type": 0,
        "meta_classification_type": "U",
        "meta_norad_cat_id": 30241,
        "meta_element_set_no": 999,
        "meta_rev_at_epoch": 96807,
        "meta_bstar": 0.00048264094,
        "meta_mean_motion_dot": 8.88e-06,
        "meta_mean_motion_ddot": 0,
        "tle_line1": "1 30241U 99025XA  25339.30723558  .00000888  00000+0  48264-3 0  9990",
        "tle_line2": "2 30241  99.1478 112.0670 0146857 101.7621 318.0933 14.09533839968078"
      },
      "geometry": {
        "type": "Point",
        "coordinates": [
          -34.81247055720816,
          73.35250076192698
        ]
      }
    },
    {
      "type": "Feature",
      "properties": {
        "norad_id": 30242,
        "name": "FENGYUN 1C DEB",
        "group": "fengyun-1c-debris",
        "lat": -17.750100157453183,
        "lon": -168.66410010385178,
        "alt_km": 842.9462894430171,
        "timestamp": "2025-12-05T19:30:25.840467+00:00",
        "meta_object_name": "FENGYUN 1C DEB",
        "meta_object_id": "1999-025XB",
        "meta_epoch": "2025-12-05T01:53:41.832960",
        "meta_mean_motion": 14.17611534,
        "meta_eccentricity": 0.00113855,
        "meta_inclination": 98.6841,
        "meta_ra_of_asc_node": 13.4229,
        "meta_arg_of_pericenter": 75.7905,
        "meta_mean_anomaly": 338.9586,
        "meta_ephemeris_type": 0,
        "meta_classification_type": "U",
        "meta_norad_cat_id": 30242,
        "meta_element_set_no": 999,
        "meta_rev_at_epoch": 97318,
        "meta_bstar": 0.001037019,
        "meta_mean_motion_dot": 2.067e-05,
        "meta_mean_motion_ddot": 0,
        "tle_line1": "1 30242U 99025XB  25339.07895640  .00002067  00000+0  10370-2 0  9994",
        "tle_line2": "2 30242  98.6841  13.4229 0011385  75.7905 338.9586 14.17611534973184"
      },
      "geometry": {
        "type": "Point",
        "coordinates": [
          -168.66410010385178,
          -17.750100157453183
        ]
      }
    }
  ]
}